STARLINK-35322          
1 66332U 25253P   25333.16668980 -.00042577  00000+0 -72399-3 0  9996
2 66332  42.9998  64.0684 0001136 257.2931 197.1469 15.50574787  4742
STARLINK-35400          
1 66333U 25253Q   25333.16668980 -.00036020  00000+0 -61117-3 0  9999
2 66333  42.9995  64.0480 0001104 256.4061 205.7050 15.50570916  4746
STARLINK-35407          
1 66334U 25253R   25333.16668980 -.00020071  00000+0 -33766-3 0  9998
2 66334  42.9997  64.0636 0001590 258.9795 197.4633 15.50537514  4743
STARLINK-35417          
1 66335U 25253S   25333.16668980 -.02033668  00000+0 -46075-1 0  9992
2 66335  43.0000  64.0475 0001328 273.8122 188.7018 15.45774772  4744
STARLINK-35404          
1 66336U 25253T   25333.16668980 -.00031257  00000+0 -52927-3 0  9998
2 66336  42.9995  64.0391 0001583 261.5674 204.3766 15.50569348  4845
STARLINK-34783          
1 66337U 25253U   25333.16668980 -.02047505  00000+0 -41916-1 0  9998
2 66337  42.9998  64.0229 0001218 273.9149 198.2674 15.48689651  4798
STARLINK-35477          
1 66338U 25253V   25333.16668980 -.02025097  00000+0 -48024-1 0  9998
2 66338  43.0000  64.0672 0001403 275.3511 179.4330 15.44437909  4841
STARLINK-35443          
1 66339U 25253W   25333.16668980 -.00030298  00000+0 -51281-3 0  9997
2 66339  42.9995  64.0046 0001619 266.2068 213.1580 15.50567558  4791
STARLINK-35218          
1 66340U 25253X   25333.16668980  .00004326  00000+0  79628-4 0  9996
2 66340  42.9996  64.0337 0001612 262.0651 205.8175 15.50541390  4842
STARLINK-35522          
1 66341U 25253Y   25333.16668980 -.00043510  00000+0 -74000-3 0  9995
2 66341  42.9996  64.0551 0001136 257.1506 203.0372 15.50577503  4840
STARLINK-35535          
1 66342U 25253Z   25333.16668980 -.00025812  00000+0 -43579-3 0  9998
2 66342  42.9996  64.0096 0001574 264.4991 212.9462 15.50566623  4749
STARLINK-35467          
1 66343U 25253AA  25333.16668980 -.01179804  00000+0 -21756-1 0  9992
2 66343  42.9995  64.0141 0001117 269.9203 205.5371 15.50937194  4741
